ORBCOMM FM24            
1 25478U 98053D   25341.95162560  .00001704  00000+0  59713-3 0  9999
2 25478  45.0054 164.9040 0002191  40.6374 319.4637 14.38631178422460
ORBCOMM FM25            
1 25479U 98053E   25341.92656009  .00001706  00000+0  59804-3 0  9996
2 25479  45.0052 163.3205 0004559  45.1936 314.9283 14.38601437422753
ORBCOMM FM26            
1 25480U 98053F   25341.91693698  .00001420  00000+0  51606-3 0  9997
2 25480  45.0046 161.1206 0006474  59.2866 300.8619 14.37577171422642
ORBCOMM FM27            
1 25481U 98053G   25341.91030442  .00001710  00000+0  59916-3 0  9994
2 25481  45.0037 163.5334 0001046  77.5632 282.5334 14.38634188422682
ORBCOMM FM28            
1 25482U 98053H   25341.71993564  .00002332  00000+0  79776-3 0  9993
2 25482  45.0043 101.7186 0004223 110.0133 250.1171 14.38768776423343
ORBCOMM FM30            
1 25980U 99065A   25341.74806021  .00001977  00000+0  69747-3 0  9995
2 25980  45.0326 347.9457 0005727 179.8948 180.1902 14.37747208359429
ORBCOMM FM31            
1 25981U 99065B   25341.72942419  .00001945  00000+0  68820-3 0  9992
2 25981  45.0238 341.4884 0004330 216.7830 143.2722 14.37674142358970
ORBCOMM FM32            
1 25982U 99065C   25341.75147236  .00002198  00000+0  78616-3 0  9995
2 25982  45.0161 359.1227 0006577 200.9289 159.1291 14.36731872359556
